[
  {
    "COMMENT": "GENERATED VIA SPACETRACK.ORG API",
    "ORIGINATOR": "18 SPCS",
    "NORAD_CAT_ID": "33105",
    "OBJECT_NAME": "JASON 2",
    "OBJECT_TYPE": "PAYLOAD",
    "CLASSIFICATION_TYPE": "U",
    "INTLDES": "08032A",
    "EPOCH": "2023-05-16 12:51:40",
    "EPOCH_MICROSECONDS": "605696",
    "MEAN_MOTION": "12.87659088",
    "ECCENTRICITY": "0.0008135",
    "INCLINATION": "66.0403",
    "RA_OF_ASC_NODE": "261.9939",
    "ARG_OF_PERICENTER": "270.7321",
    "MEAN_ANOMALY": "161.9031",
    "EPHEMERIS_TYPE": "0",
    "ELEMENT_SET_NO": "999",
    "REV_AT_EPOCH": "69851",
    "BSTAR": "-0.000087378",
    "MEAN_MOTION_DOT": "-0.00000084",
    "MEAN_MOTION_DDOT": "0",
    "FILE": "3909472",
    "TLE_LINE0": "0 JASON 2",
    "TLE_LINE1": "1 33105U 08032A   23136.53588664 -.00000084  00000-0 -87378-4 0  9996",
    "TLE_LINE2": "2 33105  66.0403 261.9939 0008135 270.7321 161.9031 12.87659088698515",
    "OBJECT_ID": "2008-032A",
    "OBJECT_NUMBER": "33105",
    "SEMIMAJOR_AXIS": "7688.965",
    "PERIOD": "111.831",
    "APOGEE": "1317.085",
    "PERIGEE": "1304.575",
    "DECAYED": "0"
  },
  {
    "COMMENT": "GENERATED VIA SPACETRACK.ORG API",
    "ORIGINATOR": "18 SPCS",
    "NORAD_CAT_ID": "33105",
    "OBJECT_NAME": "JASON 2",
    "OBJECT_TYPE": "PAYLOAD",
    "CLASSIFICATION_TYPE": "U",
    "INTLDES": "08032A",
    "EPOCH": "2023-05-17 16:57:24",
    "EPOCH_MICROSECONDS": "618816",
    "MEAN_MOTION": "12.87658991",
    "ECCENTRICITY": "0.0008147",
    "INCLINATION": "66.0393",
    "RA_OF_ASC_NODE": "259.5328",
    "ARG_OF_PERICENTER": "270.6967",
    "MEAN_ANOMALY": "188.0264",
    "EPHEMERIS_TYPE": "0",
    "ELEMENT_SET_NO": "999",
    "REV_AT_EPOCH": "69866",
    "BSTAR": "-0.00002451",
    "MEAN_MOTION_DOT": "-0.00000068",
    "MEAN_MOTION_DDOT": "0",
    "FILE": "3910633",
    "TLE_LINE0": "0 JASON 2",
    "TLE_LINE1": "1 33105U 08032A   23137.70653494 -.00000068  00000-0 -24510-4 0  9991",
    "TLE_LINE2": "2 33105  66.0393 259.5328 0008147 270.6967 188.0264 12.87658991698662",
    "OBJECT_ID": "2008-032A",
    "OBJECT_NUMBER": "33105",
    "SEMIMAJOR_AXIS": "7688.966",
    "PERIOD": "111.831",
    "APOGEE": "1317.095",
    "PERIGEE": "1304.567",
    "DECAYED": "0"
  },
  {
    "COMMENT": "GENERATED VIA SPACETRACK.ORG API",
    "ORIGINATOR": "18 SPCS",
    "NORAD_CAT_ID": "33105",
    "OBJECT_NAME": "JASON 2",
    "OBJECT_TYPE": "PAYLOAD",
    "CLASSIFICATION_TYPE": "U",
    "INTLDES": "08032A",
    "EPOCH": "2023-05-18 13:20:56",
    "EPOCH_MICROSECONDS": "169024",
    "MEAN_MOTION": "12.87658995",
    "ECCENTRICITY": "0.0008158",
    "INCLINATION": "66.0394",
    "RA_OF_ASC_NODE": "257.7463",
    "ARG_OF_PERICENTER": "270.6372",
    "MEAN_ANOMALY": "166.4074",
    "EPHEMERIS_TYPE": "0",
    "ELEMENT_SET_NO": "999",
    "REV_AT_EPOCH": "69877",
    "BSTAR": "-0.000018161",
    "MEAN_MOTION_DOT": "-0.00000067",
    "MEAN_MOTION_DDOT": "0",
    "FILE": "3911221",
    "TLE_LINE0": "0 JASON 2",
    "TLE_LINE1": "1 33105U 08032A   23138.55620566 -.00000067  00000-0 -18161-4 0  9993",
    "TLE_LINE2": "2 33105  66.0394 257.7463 0008158 270.6372 166.4074 12.87658995698770",
    "OBJECT_ID": "2008-032A",
    "OBJECT_NUMBER": "33105",
    "SEMIMAJOR_AXIS": "7688.966",
    "PERIOD": "111.831",
    "APOGEE": "1317.103",
    "PERIGEE": "1304.558",
    "DECAYED": "0"
  },
  {
    "COMMENT": "GENERATED VIA SPACETRACK.ORG API",
    "ORIGINATOR": "18 SPCS",
    "NORAD_CAT_ID": "33105",
    "OBJECT_NAME": "JASON 2",
    "OBJECT_TYPE": "PAYLOAD",
    "CLASSIFICATION_TYPE": "U",
    "INTLDES": "08032A",
    "EPOCH": "2023-05-18 13:20:56",
    "EPOCH_MICROSECONDS": "169024",
    "MEAN_MOTION": "12.87658995",
    "ECCENTRICITY": "0.0008158",
    "INCLINATION": "66.0394",
    "RA_OF_ASC_NODE": "257.7463",
    "ARG_OF_PERICENTER": "270.6372",
    "MEAN_ANOMALY": "166.4074",
    "EPHEMERIS_TYPE": "0",
    "ELEMENT_SET_NO": "999",
    "REV_AT_EPOCH": "69886",
    "BSTAR": "-0.000018161",
    "MEAN_MOTION_DOT": "-0.00000067",
    "MEAN_MOTION_DDOT": "0",
    "FILE": "3911264",
    "TLE_LINE0": "0 JASON 2",
    "TLE_LINE1": "1 33105U 08032A   23138.55620566 -.00000067  00000-0 -18161-4 0  9993",
    "TLE_LINE2": "2 33105  66.0394 257.7463 0008158 270.6372 166.4074 12.87658995698860",
    "OBJECT_ID": "2008-032A",
    "OBJECT_NUMBER": "33105",
    "SEMIMAJOR_AXIS": "7688.966",
    "PERIOD": "111.831",
    "APOGEE": "1317.103",
    "PERIGEE": "1304.558",
    "DECAYED": "0"
  },
  {
    "COMMENT": "GENERATED VIA SPACETRACK.ORG API",
    "ORIGINATOR": "18 SPCS",
    "NORAD_CAT_ID": "33105",
    "OBJECT_NAME": "JASON 2",
    "OBJECT_TYPE": "PAYLOAD",
    "CLASSIFICATION_TYPE": "U",
    "INTLDES": "08032A",
    "EPOCH": "2023-05-19 11:40:49",
    "EPOCH_MICROSECONDS": "81152",
    "MEAN_MOTION": "12.87658961",
    "ECCENTRICITY": "0.0008152",
    "INCLINATION": "66.0394",
    "RA_OF_ASC_NODE": "255.7898",
    "ARG_OF_PERICENTER": "270.5974",
    "MEAN_ANOMALY": "159.2986",
    "EPHEMERIS_TYPE": "0",
    "ELEMENT_SET_NO": "999",
    "REV_AT_EPOCH": "69889",
    "BSTAR": "-0.000031529",
    "MEAN_MOTION_DOT": "-0.0000007",
    "MEAN_MOTION_DDOT": "0",
    "FILE": "3912278",
    "TLE_LINE0": "0 JASON 2",
    "TLE_LINE1": "1 33105U 08032A   23139.48667918 -.00000070  00000-0 -31529-4 0  9995",
    "TLE_LINE2": "2 33105  66.0394 255.7898 0008152 270.5974 159.2986 12.87658961698899",
    "OBJECT_ID": "2008-032A",
    "OBJECT_NUMBER": "33105",
    "SEMIMAJOR_AXIS": "7688.966",
    "PERIOD": "111.831",
    "APOGEE": "1317.099",
    "PERIGEE": "1304.563",
    "DECAYED": "0"
  },
  {
    "COMMENT": "GENERATED VIA SPACETRACK.ORG API",
    "ORIGINATOR": "18 SPCS",
    "NORAD_CAT_ID": "33105",
    "OBJECT_NAME": "JASON 2",
    "OBJECT_TYPE": "PAYLOAD",
    "CLASSIFICATION_TYPE": "U",
    "INTLDES": "08032A",
    "EPOCH": "2023-05-20 15:46:27",
    "EPOCH_MICROSECONDS": "965568",
    "MEAN_MOTION": "12.87658951",
    "ECCENTRICITY": "0.0008156",
    "INCLINATION": "66.0394",
    "RA_OF_ASC_NODE": "253.3286",
    "ARG_OF_PERICENTER": "270.5704",
    "MEAN_ANOMALY": "185.14",
    "EPHEMERIS_TYPE": "0",
    "ELEMENT_SET_NO": "999",
    "REV_AT_EPOCH": "69913",
    "BSTAR": "-0.000029978",
    "MEAN_MOTION_DOT": "-0.0000007",
    "MEAN_MOTION_DDOT": "0",
    "FILE": "3912932",
    "TLE_LINE0": "0 JASON 2",
    "TLE_LINE1": "1 33105U 08032A   23140.65726812 -.00000070  00000-0 -29978-4 0  9990",
    "TLE_LINE2": "2 33105  66.0394 253.3286 0008156 270.5704 185.1400 12.87658951699135",
    "OBJECT_ID": "2008-032A",
    "OBJECT_NUMBER": "33105",
    "SEMIMAJOR_AXIS": "7688.966",
    "PERIOD": "111.831",
    "APOGEE": "1317.102",
    "PERIGEE": "1304.560",
    "DECAYED": "0"
  },
  {
    "COMMENT": "GENERATED VIA SPACETRACK.ORG API",
    "ORIGINATOR": "18 SPCS",
    "NORAD_CAT_ID": "33105",
    "OBJECT_NAME": "JASON 2",
    "OBJECT_TYPE": "PAYLOAD",
    "CLASSIFICATION_TYPE": "U",
    "INTLDES": "08032A",
    "EPOCH": "2023-05-20 15:46:27",
    "EPOCH_MICROSECONDS": "965568",
    "MEAN_MOTION": "12.87658951",
    "ECCENTRICITY": "0.0008156",
    "INCLINATION": "66.0394",
    "RA_OF_ASC_NODE": "253.3286",
    "ARG_OF_PERICENTER": "270.5704",
    "MEAN_ANOMALY": "185.14",
    "EPHEMERIS_TYPE": "0",
    "ELEMENT_SET_NO": "999",
    "REV_AT_EPOCH": "69904",
    "BSTAR": "-0.000029978",
    "MEAN_MOTION_DOT": "-0.0000007",
    "MEAN_MOTION_DDOT": "0",
    "FILE": "3913175",
    "TLE_LINE0": "0 JASON 2",
    "TLE_LINE1": "1 33105U 08032A   23140.65726812 -.00000070  00000-0 -29978-4 0  9990",
    "TLE_LINE2": "2 33105  66.0394 253.3286 0008156 270.5704 185.1400 12.87658951699045",
    "OBJECT_ID": "2008-032A",
    "OBJECT_NUMBER": "33105",
    "SEMIMAJOR_AXIS": "7688.966",
    "PERIOD": "111.831",
    "APOGEE": "1317.102",
    "PERIGEE": "1304.560",
    "DECAYED": "0"
  },
  {
    "COMMENT": "GENERATED VIA SPACETRACK.ORG API",
    "ORIGINATOR": "18 SPCS",
    "NORAD_CAT_ID": "33105",
    "OBJECT_NAME": "JASON 2",
    "OBJECT_TYPE": "PAYLOAD",
    "CLASSIFICATION_TYPE": "U",
    "INTLDES": "08032A",
    "EPOCH": "2023-05-21 12:10:17",
    "EPOCH_MICROSECONDS": "397120",
    "MEAN_MOTION": "12.87658929",
    "ECCENTRICITY": "0.0008149",
    "INCLINATION": "66.0394",
    "RA_OF_ASC_NODE": "251.5416",
    "ARG_OF_PERICENTER": "270.5738",
    "MEAN_ANOMALY": "164.4171",
    "EPHEMERIS_TYPE": "0",
    "ELEMENT_SET_NO": "999",
    "REV_AT_EPOCH": "69915",
    "BSTAR": "-0.000035948",
    "MEAN_MOTION_DOT": "-0.00000071",
    "MEAN_MOTION_DDOT": "0",
    "FILE": "3913738",
    "TLE_LINE0": "0 JASON 2",
    "TLE_LINE1": "1 33105U 08032A   23141.50714580 -.00000071  00000-0 -35948-4 0  9999",
    "TLE_LINE2": "2 33105  66.0394 251.5416 0008149 270.5738 164.4171 12.87658929699151",
    "OBJECT_ID": "2008-032A",
    "OBJECT_NUMBER": "33105",
    "SEMIMAJOR_AXIS": "7688.966",
    "PERIOD": "111.831",
    "APOGEE": "1317.097",
    "PERIGEE": "1304.565",
    "DECAYED": "0"
  }
]